[{"OBJECT_NAME":"AIST-2T 2","OBJECT_ID":"2025-313G","EPOCH":"2026-03-09T21:32:59.687520","MEAN_MOTION":15.60844796,"ECCENTRICITY":0.00108481,"INCLINATION":97.0913,"RA_OF_ASC_NODE":146.4999,"ARG_OF_PERICENTER":225.895,"MEAN_ANOMALY":134.1416,"EPHEMERIS_TYPE":0,"CLASSIFICATION_TYPE":"U","NORAD_CAT_ID":67254,"ELEMENT_SET_NO":999,"REV_AT_EPOCH":1112,"BSTAR":0.0018608584,"MEAN_MOTION_DOT":0.0015826,"MEAN_MOTION_DDOT":0},{"OBJECT_NAME":"COSMOS 803","OBJECT_ID":"1976-014A","EPOCH":"2026-03-09T23:17:47.855328","MEAN_MOTION":15.61335179,"ECCENTRICITY":0.00020256,"INCLINATION":65.8372,"RA_OF_ASC_NODE":311.9336,"ARG_OF_PERICENTER":211.5749,"MEAN_ANOMALY":148.5287,"EPHEMERIS_TYPE":0,"CLASSIFICATION_TYPE":"U","NORAD_CAT_ID":8688,"ELEMENT_SET_NO":999,"REV_AT_EPOCH":77635,"BSTAR":0.00015550642,"MEAN_MOTION_DOT":0.00013037,"MEAN_MOTION_DDOT":0}]
